[{"OBJECT_NAME":"YAOGAN-36 05C","OBJECT_ID":"2023-106E","EPOCH":"2026-03-09T23:02:42.692640","MEAN_MOTION":15.17284181,"ECCENTRICITY":0.00091151,"INCLINATION":34.9946,"RA_OF_ASC_NODE":339.3602,"ARG_OF_PERICENTER":188.1733,"MEAN_ANOMALY":171.8833,"EPHEMERIS_TYPE":0,"CLASSIFICATION_TYPE":"U","NORAD_CAT_ID":57456,"ELEMENT_SET_NO":999,"REV_AT_EPOCH":14578,"BSTAR":0.00035217341,"MEAN_MOTION_DOT":7.158e-5,"MEAN_MOTION_DDOT":0},{"OBJECT_NAME":"OBJECT B","OBJECT_ID":"2024-105B","EPOCH":"2026-03-09T23:14:43.984032","MEAN_MOTION":15.17318063,"ECCENTRICITY":0.00110488,"INCLINATION":97.5903,"RA_OF_ASC_NODE":84.1254,"ARG_OF_PERICENTER":221.685,"MEAN_ANOMALY":138.3542,"EPHEMERIS_TYPE":0,"CLASSIFICATION_TYPE":"U","NORAD_CAT_ID":59918,"ELEMENT_SET_NO":999,"REV_AT_EPOCH":9799,"BSTAR":0.00069707648,"MEAN_MOTION_DOT":0.00013867,"MEAN_MOTION_DDOT":0}]
